{
  "type": "FeatureCollection",
  "features": [
    {
      "type": "Feature",
      "properties": {
        "norad_id": 30932,
        "name": "FENGYUN 1C DEB",
        "group": "fengyun-1c-debris",
        "lat": -79.14946324834604,
        "lon": -31.67758888318134,
        "alt_km": 775.1710687665927,
        "timestamp": "2025-12-06T14:35:37.406055+00:00",
        "meta_object_name": "FENGYUN 1C DEB",
        "meta_object_id": "1999-025AZW",
        "meta_epoch": "2025-12-04T02:23:11.218560",
        "meta_mean_motion": 14.26611762,
        "meta_eccentricity": 0.00594887,
        "meta_inclination": 98.9091,
        "meta_ra_of_asc_node": 270.8488,
        "meta_arg_of_pericenter": 318.7203,
        "meta_mean_anomaly": 40.9487,
        "meta_ephemeris_type": 0,
        "meta_classification_type": "U",
        "meta_norad_cat_id": 30932,
        "meta_element_set_no": 999,
        "meta_rev_at_epoch": 96271,
        "meta_bstar": 0.0062546337,
        "meta_mean_motion_dot": 0.00015374,
        "meta_mean_motion_ddot": 0,
        "tle_line1": "1 30932U 99025AZW 25338.09943540  .00015374  00000+0  62546-2 0  9991",
        "tle_line2": "2 30932  98.9091 270.8488 0059488 318.7203  40.9487 14.26611762962713"
      },
      "geometry": {
        "type": "Point",
        "coordinates": [
          -31.67758888318134,
          -79.14946324834604
        ]
      }
    },
    {
      "type": "Feature",
      "properties": {
        "norad_id": 30933,
        "name": "FENGYUN 1C DEB",
        "group": "fengyun-1c-debris",
        "lat": -36.813382361296235,
        "lon": -30.35668648973642,
        "alt_km": 724.3290684955709,
        "timestamp": "2025-12-06T14:35:37.406066+00:00",
        "meta_object_name": "FENGYUN 1C DEB",
        "meta_object_id": "1999-025AZX",
        "meta_epoch": "2025-12-06T05:17:48.035904",
        "meta_mean_motion": 14.36176384,
        "meta_eccentricity": 0.00777626,
        "meta_inclination": 99.0467,
        "meta_ra_of_asc_node": 322.3882,
        "meta_arg_of_pericenter": 341.3709,
        "meta_mean_anomaly": 139.9287,
        "meta_ephemeris_type": 0,
        "meta_classification_type": "U",
        "meta_norad_cat_id": 30933,
        "meta_element_set_no": 999,
        "meta_rev_at_epoch": 95778,
        "meta_bstar": 0.0093998781,
        "meta_mean_motion_dot": 0.00028439,
        "meta_mean_motion_ddot": 0,
        "tle_line1": "1 30933U 99025AZX 25340.22069486  .00028439  00000+0  93999-2 0  9990",
        "tle_line2": "2 30933  99.0467 322.3882 0077762 341.3709 139.9287 14.36176384957787"
      },
      "geometry": {
        "type": "Point",
        "coordinates": [
          -30.35668648973642,
          -36.813382361296235
        ]
      }
    },
    {
      "type": "Feature",
      "properties": {
        "norad_id": 30934,
        "name": "FENGYUN 1C DEB",
        "group": "fengyun-1c-debris",
        "lat": 74.52066947291556,
        "lon": -175.49971646478903,
        "alt_km": 837.5354301741818,
        "timestamp": "2025-12-06T14:35:37.406076+00:00",
        "meta_object_name": "FENGYUN 1C DEB",
        "meta_object_id": "1999-025AZY",
        "meta_epoch": "2025-12-06T07:05:32.647200",
        "meta_mean_motion": 13.46715086,
        "meta_eccentricity": 0.03401617,
        "meta_inclination": 98.7656,
        "meta_ra_of_asc_node": 218.0826,
        "meta_arg_of_pericenter": 97.9222,
        "meta_mean_anomaly": 266.0658,
        "meta_ephemeris_type": 0,
        "meta_classification_type": "U",
        "meta_norad_cat_id": 30934,
        "meta_element_set_no": 999,
        "meta_rev_at_epoch": 91621,
        "meta_bstar": 0.0026392997,
        "meta_mean_motion_dot": 2.234e-05,
        "meta_mean_motion_ddot": 0,
        "tle_line1": "1 30934U 99025AZY 25340.29551675  .00002234  00000+0  26393-2 0  9993",
        "tle_line2": "2 30934  98.7656 218.0826 0340161  97.9222 266.0658 13.46715086916218"
      },
      "geometry": {
        "type": "Point",
        "coordinates": [
          -175.49971646478903,
          74.52066947291556
        ]
      }
    },
    {
      "type": "Feature",
      "properties": {
        "norad_id": 30936,
        "name": "FENGYUN 1C DEB",
        "group": "fengyun-1c-debris",
        "lat": -40.31325731404317,
        "lon": -175.80011845827022,
        "alt_km": 819.3392948766159,
        "timestamp": "2025-12-06T14:35:37.406086+00:00",
        "meta_object_name": "FENGYUN 1C DEB",
        "meta_object_id": "1999-025BAA",
        "meta_epoch": "2025-12-06T00:22:20.965152",
        "meta_mean_motion": 14.23349238,
        "meta_eccentricity": 0.0046036,
        "meta_inclination": 98.5822,
        "meta_ra_of_asc_node": 10.9836,
        "meta_arg_of_pericenter": 310.7038,
        "meta_mean_anomaly": 116.048,
        "meta_ephemeris_type": 0,
        "meta_classification_type": "U",
        "meta_norad_cat_id": 30936,
        "meta_element_set_no": 999,
        "meta_rev_at_epoch": 97037,
        "meta_bstar": 0.00084705146,
        "meta_mean_motion_dot": 1.898e-05,
        "meta_mean_motion_ddot": 0,
        "tle_line1": "1 30936U 99025BAA 25340.01552043  .00001898  00000+0  84705-3 0  9992",
        "tle_line2": "2 30936  98.5822  10.9836 0046036 310.7038 116.0480 14.23349238970370"
      },
      "geometry": {
        "type": "Point",
        "coordinates": [
          -175.80011845827022,
          -40.31325731404317
        ]
      }
    },
    {
      "type": "Feature",
      "properties": {
        "norad_id": 30937,
        "name": "FENGYUN 1C DEB",
        "group": "fengyun-1c-debris",
        "lat": -55.421860589308416,
        "lon": 46.484382994626344,
        "alt_km": 948.562209915809,
        "timestamp": "2025-12-06T14:35:37.406096+00:00",
        "meta_object_name": "FENGYUN 1C DEB",
        "meta_object_id": "1999-025BAB",
        "meta_epoch": "2025-12-06T02:57:05.581728",
        "meta_mean_motion": 13.95582657,
        "meta_eccentricity": 0.00758762,
        "meta_inclination": 99.0898,
        "meta_ra_of_asc_node": 32.5762,
        "meta_arg_of_pericenter": 71.172,
        "meta_mean_anomaly": 317.2902,
        "meta_ephemeris_type": 0,
        "meta_classification_type": "U",
        "meta_norad_cat_id": 30937,
        "meta_element_set_no": 999,
        "meta_rev_at_epoch": 95624,
        "meta_bstar": 3.749246e-06,
        "meta_mean_motion_dot": -3.8e-07,
        "meta_mean_motion_ddot": 0,
        "tle_line1": "1 30937U 99025BAB 25340.12298127 -.00000038  00000+0  37492-5 0  9994",
        "tle_line2": "2 30937  99.0898  32.5762 0075876  71.1720 317.2902 13.95582657956244"
      },
      "geometry": {
        "type": "Point",
        "coordinates": [
          46.484382994626344,
          -55.421860589308416
        ]
      }
    },
    {
      "type": "Feature",
      "properties": {
        "norad_id": 30938,
        "name": "FENGYUN 1C DEB",
        "group": "fengyun-1c-debris",
        "lat": -31.973599314719138,
        "lon": 168.86667722373758,
        "alt_km": 860.6465745430678,
        "timestamp": "2025-12-06T14:35:37.406106+00:00",
        "meta_object_name": "FENGYUN 1C DEB",
        "meta_object_id": "1999-025BAC",
        "meta_epoch": "2025-12-06T06:54:10.745568",
        "meta_mean_motion": 14.19804512,
        "meta_eccentricity": 0.00462527,
        "meta_inclination": 98.591,
        "meta_ra_of_asc_node": 353.9705,
        "meta_arg_of_pericenter": 2.4844,
        "meta_mean_anomaly": 13.087,
        "meta_ephemeris_type": 0,
        "meta_classification_type": "U",
        "meta_norad_cat_id": 30938,
        "meta_element_set_no": 999,
        "meta_rev_at_epoch": 97028,
        "meta_bstar": 0.00067502016,
        "meta_mean_motion_dot": 1.403e-05,
        "meta_mean_motion_ddot": 0,
        "tle_line1": "1 30938U 99025BAC 25340.28762437  .00001403  00000+0  67502-3 0  9991",
        "tle_line2": "2 30938  98.5910 353.9705 0046252   2.4844  13.0870 14.19804512970280"
      },
      "geometry": {
        "type": "Point",
        "coordinates": [
          168.86667722373758,
          -31.973599314719138
        ]
      }
    },
    {
      "type": "Feature",
      "properties": {
        "norad_id": 30940,
        "name": "FENGYUN 1C DEB",
        "group": "fengyun-1c-debris",
        "lat": 30.676716689476926,
        "lon": -23.941623926960986,
        "alt_km": 833.9556577308822,
        "timestamp": "2025-12-06T14:35:37.406133+00:00",
        "meta_object_name": "FENGYUN 1C DEB",
        "meta_object_id": "1999-025BAE",
        "meta_epoch": "2025-12-05T06:06:10.312128",
        "meta_mean_motion": 14.08285934,
        "meta_eccentricity": 0.00414748,
        "meta_inclination": 98.6226,
        "meta_ra_of_asc_node": 339.9288,
        "meta_arg_of_pericenter": 24.7538,
        "meta_mean_anomaly": 346.6881,
        "meta_ephemeris_type": 0,
        "meta_classification_type": "U",
        "meta_norad_cat_id": 30940,
        "meta_element_set_no": 999,
        "meta_rev_at_epoch": 96027,
        "meta_bstar": 0.000647699,
        "meta_mean_motion_dot": 1.074e-05,
        "meta_mean_motion_ddot": 0,
        "tle_line1": "1 30940U 99025BAE 25339.25428602  .00001074  00000+0  64770-3 0  9990",
        "tle_line2": "2 30940  98.6226 339.9288 0041474  24.7538 346.6881 14.08285934960276"
      },
      "geometry": {
        "type": "Point",
        "coordinates": [
          -23.941623926960986,
          30.676716689476926
        ]
      }
    }
  ]
}